{
    "links": {
        "self": "http://www.neowsapp.com/rest/v1/neo/54017643?api_key=iIulBulltgU6a56xZRHN4H3l9WmuAYTsLGpBGhQ2"
    },
    "id": "54017643",
    "neo_reference_id": "54017643",
    "name": "(2020 MY2)",
    "designation": "2020 MY2",
    "nasa_jpl_url": "http://ssd.jpl.nasa.gov/sbdb.cgi?sstr=54017643",
    "absolute_magnitude_h": 24.534,
    "estimated_diameter": {
        "kilometers": {
            "estimated_diameter_min": 0.0329423803,
            "estimated_diameter_max": 0.0736614017
        },
        "meters": {
            "estimated_diameter_min": 32.9423803041,
            "estimated_diameter_max": 73.6614017007
        },
        "miles": {
            "estimated_diameter_min": 0.0204694398,
            "estimated_diameter_max": 0.0457710588
        },
        "feet": {
            "estimated_diameter_min": 108.078678997,
            "estimated_diameter_max": 241.6712731557
        }
    },
    "is_potentially_hazardous_asteroid": false,
    "close_approach_data": [
        {
            "close_approach_date": "2020-05-29",
            "close_approach_date_full": "2020-May-29 07:27",
            "epoch_date_close_approach": 1590737220000,
            "relative_velocity": {
                "kilometers_per_second": "10.093583096",
                "kilometers_per_hour": "36336.8991454546",
                "miles_per_hour": "22578.336027352"
            },
            "miss_distance": {
                "astronomical": "0.0970978482",
                "lunar": "37.7710629498",
                "kilometers": "14525631.272303334",
                "miles": "9025808.7402966492"
            },
            "orbiting_body": "Earth"
        }
    ],
    "orbital_data": {
        "orbit_id": "1",
        "orbit_determination_date": "2020-06-27 14:12:05",
        "first_observation_date": "2020-06-22",
        "last_observation_date": "2020-06-27",
        "data_arc_in_days": 5,
        "observations_used": 11,
        "orbit_uncertainty": "9",
        "minimum_orbit_intersection": ".0453217",
        "jupiter_tisserand_invariant": "3.871",
        "epoch_osculation": "2459024.5",
        "eccentricity": ".4602425769593769",
        "semi_major_axis": "1.847492546307546",
        "inclination": "4.716027763983785",
        "ascending_node_longitude": "263.3379544399188",
        "orbital_period": "917.2177893514335",
        "perihelion_distance": ".9971978158817197",
        "perihelion_argument": "304.6051862710021",
        "aphelion_distance": "2.697787276733371",
        "perihelion_time": "2458967.731518805340",
        "mean_anomaly": "22.28113482679877",
        "mean_motion": ".3924912972463789",
        "equinox": "J2000",
        "orbit_class": {
            "orbit_class_type": "APO",
            "orbit_class_description": "Near-Earth asteroid orbits which cross the Earth’s orbit similar to that of 1862 Apollo",
            "orbit_class_range": "a (semi-major axis) > 1.0 AU; q (perihelion) < 1.017 AU"
        }
    },
    "is_sentry_object": false
}